ONEWEB-0312             
1 49098U 21075Z   26166.06070848  .00000051  00000+0  98966-4 0  9996
2 49098  87.9132   6.2966 0002168  92.0552 268.0828 13.17652398233323
ONEWEB-0313             
1 49099U 21075AA  26166.06561352 -.00000011  00000+0 -61605-4 0  9990
2 49099  87.9129   6.3014 0001991  86.7185 273.4174 13.17647533233318
ONEWEB-0314             
1 49100U 21075AB  26166.10794927 -.00000067  00000+0 -20446-3 0  9992
2 49100  87.9142   6.2651 0002233  91.4795 268.6592 13.17649152233298
ONEWEB-0315             
1 49101U 21075AC  26166.07385944 -.00000435  00000+0 -12458-2 0  9996
2 49101  87.8947 351.0644 0002096  82.2742 277.8624 13.12443231234891
ONEWEB-0316             
1 49102U 21075AD  26166.18602808 -.00000021  00000+0 -86767-4 0  9997
2 49102  87.9161 335.8544 0001924  91.6264 268.5088 13.18686884236940
ONEWEB-0317             
1 49103U 21075AE  26166.07724891 -.00000473  00000+0 -13500-2 0  9997
2 49103  87.8948 351.0877 0001482 113.1901 246.9383 13.12442995234919
ONEWEB-0318             
1 49104U 21075AF  26166.18265852  .00000012  00000+0 -23589-5 0  9996
2 49104  87.9168 335.8564 0002037  86.9055 273.2310 13.18685910236908
ONEWEB-0319             
1 49105U 21075AG  26166.12312780 -.00000049  00000+0 -15854-3 0  9999
2 49105  87.9133   6.2788 0002251  77.2653 282.8729 13.17648944233332
ONEWEB-0323             
1 49106U 21075AH  26166.05861811  .00000073  00000+0  16807-3 0  9990
2 49106  87.8948 351.0727 0002318  82.9928 277.1464 13.12442084234271
ONEWEB-0329             
1 49107U 21075AJ  26166.05562977 -.00000031  00000+0 -11252-3 0  9997
2 49107  87.9134   6.2930 0002027  89.1929 270.9435 13.17648615233307
ONEWEB-0330             
1 49108U 21075AK  26166.07940495 -.00000045  00000+0 -14786-3 0  9995
2 49108  87.9137   6.3084 0002040  93.6413 266.4952 13.17648642233343
ONEWEB-0292             
1 49186U 21083A   26165.95642109  .00000276  00000+0  71975-3 0  9994
2 49186  87.8944 320.6826 0001932  91.8192 268.3159 13.13471294230635
ONEWEB-0303             
1 49187U 21083B   26166.17928446  .00000053  00000+0  10243-3 0  9995
2 49187  87.9164 335.8558 0001997  89.5513 270.5848 13.18687015229715
ONEWEB-0306             
1 49188U 21083C   26166.01741019  .00000020  00000+0  18868-4 0  9994
2 49188  87.9169 335.8757 0001722  98.8477 261.2850 13.18687011229738
ONEWEB-0307             
1 49189U 21083D   26166.17902130  .00000230  00000+0  59394-3 0  9996
2 49189  87.8948 320.6352 0001978  95.2821 264.8534 13.13470267230663
ONEWEB-0320             
1 49190U 21083E   26166.18939228  .00000010  00000+0 -82155-5 0  9997
2 49190  87.9157 335.8601 0001821  93.8161 266.3179 13.18685931229718
ONEWEB-0321             
1 49191U 21083F   26166.00410149 -.00000014  00000+0 -66529-4 0  9996
2 49191  87.9191 274.8698 0001801 107.2327 252.9003 13.20771916236545
ONEWEB-0322             
1 49192U 21083G   26166.17476508  .00000115  00000+0  28041-3 0  9992
2 49192  87.8950 320.6365 0001371  99.8787 260.2497 13.13468395230658
ONEWEB-0324             
1 49193U 21083H   26166.16241360 -.00000046  00000+0 -15069-3 0  9999
2 49193  87.9170 335.8523 0001958  97.4873 262.6482 13.18685309229737
ONEWEB-0325             
1 49194U 21083J   26166.16579073 -.00000017  00000+0 -75289-4 0  9994
2 49194  87.9159 335.8601 0001795  90.0681 270.0657 13.18686049229747
ONEWEB-0326             
1 49195U 21083K   26166.18110626  .00000003  00000+0 -26396-4 0  9991
2 49195  87.9168 335.8548 0002037  85.9319 274.2046 13.18685272229733
ONEWEB-0327             
1 49196U 21083L   26166.18082558 -.00000002  00000+0 -36587-4 0  9997
2 49196  87.9159 335.8593 0001986  81.1802 278.9555 13.18685009229757
ONEWEB-0328             
1 49197U 21083M   26166.16462617 -.00000168  00000+0 -49576-3 0  9998
2 49197  87.8960 320.6114 0001946  99.3704 260.7646 13.13470349230639
ONEWEB-0331             
1 49198U 21083N   26166.17421850  .00000039  00000+0  66027-4 0  9990
2 49198  87.9169 335.8499 0002129  86.5622 273.5753 13.18686943229742
ONEWEB-0333             
1 49199U 21083P   26166.15954378 -.00000103  00000+0 -31798-3 0  9995
2 49199  87.8947 320.6390 0001814  94.8794 265.2542 13.13470722230646
ONEWEB-0334             
1 49200U 21083Q   26166.02089051  .00016893  00000+0  41187-1 0  9993
2 49200  87.9212 274.8737 0002020 135.2478 224.8819 13.21183508236500
ONEWEB-0335             
1 49201U 21083R   26166.15446778 -.00000328  00000+0 -93380-3 0  9993
2 49201  87.8951 320.6371 0001989  93.2207 266.9150 13.13470596230652
ONEWEB-0336             
1 49202U 21083S   26166.12568859  .00000070  00000+0  15636-3 0  9996
2 49202  87.8950 320.6382 0002235  93.1855 266.9530 13.13469946230645
ONEWEB-0337             
1 49203U 21083T   26166.13571045 -.00000214  00000+0 -62109-3 0  9998
2 49203  87.8948 320.6422 0002033  98.2694 261.8666 13.13470099230646
ONEWEB-0338             
1 49204U 21083U   26165.99567600  .00000047  00000+0  84133-4 0  9998
2 49204  87.9182 274.8856 0001671 103.1266 257.0054 13.20773989236520
