OBJECT_NAME,OBJECT_ID,EPOCH,MEAN_MOTION,ECCENTRICITY,INCLINATION,RA_OF_ASC_NODE,ARG_OF_PERICENTER,MEAN_ANOMALY,EPHEMERIS_TYPE,CLASSIFICATION_TYPE,NORAD_CAT_ID,ELEMENT_SET_NO,REV_AT_EPOCH,BSTAR,MEAN_MOTION_DOT,MEAN_MOTION_DDOT
ONEWEB-0312,2021-075Z,2026-06-15T01:27:25.212672,13.17652398,.0002168,87.9132,6.2966,92.0552,268.0828,0,U,49098,999,23332,.98966E-4,.51E-6,0
ONEWEB-0313,2021-075AA,2026-06-15T01:34:29.008128,13.17647533,.0001991,87.9129,6.3014,86.7185,273.4174,0,U,49099,999,23331,-.61605E-4,-.11E-6,0
ONEWEB-0314,2021-075AB,2026-06-15T02:35:26.816928,13.17649152,.0002233,87.9142,6.2651,91.4795,268.6592,0,U,49100,999,23329,-.20446E-3,-.67E-6,0
ONEWEB-0315,2021-075AC,2026-06-15T01:46:21.455616,13.12443231,.0002096,87.8947,351.0644,82.2742,277.8624,0,U,49101,999,23489,-.12458E-2,-.435E-5,0
ONEWEB-0316,2021-075AD,2026-06-15T04:27:52.826112,13.18686884,.0001924,87.9161,335.8544,91.6264,268.5088,0,U,49102,999,23694,-.86767E-4,-.21E-6,0
ONEWEB-0317,2021-075AE,2026-06-15T01:51:14.305824,13.12442995,.0001482,87.8948,351.0877,113.1901,246.9383,0,U,49103,999,23491,-.135E-2,-.473E-5,0
ONEWEB-0318,2021-075AF,2026-06-15T04:23:01.696128,13.18685910,.0002037,87.9168,335.8564,86.9055,273.2310,0,U,49104,999,23690,-.23589E-5,.12E-6,0
ONEWEB-0319,2021-075AG,2026-06-15T02:57:18.241920,13.17648944,.0002251,87.9133,6.2788,77.2653,282.8729,0,U,49105,999,23333,-.15854E-3,-.49E-6,0
ONEWEB-0323,2021-075AH,2026-06-15T01:24:24.604704,13.12442084,.0002318,87.8948,351.0727,82.9928,277.1464,0,U,49106,999,23427,.16807E-3,.73E-6,0
ONEWEB-0329,2021-075AJ,2026-06-15T01:20:06.412128,13.17648615,.0002027,87.9134,6.2930,89.1929,270.9435,0,U,49107,999,23330,-.11252E-3,-.31E-6,0
ONEWEB-0330,2021-075AK,2026-06-15T01:54:20.587680,13.17648642,.000204,87.9137,6.3084,93.6413,266.4952,0,U,49108,999,23334,-.14786E-3,-.45E-6,0
ONEWEB-0292,2021-083A,2026-06-14T22:57:14.782176,13.13471294,.0001932,87.8944,320.6826,91.8192,268.3159,0,U,49186,999,23063,.71975E-3,.276E-5,0
ONEWEB-0303,2021-083B,2026-06-15T04:18:10.177344,13.18687015,.0001997,87.9164,335.8558,89.5513,270.5848,0,U,49187,999,22971,.10243E-3,.53E-6,0
ONEWEB-0306,2021-083C,2026-06-15T00:25:04.240416,13.18687011,.0001722,87.9169,335.8757,98.8477,261.2850,0,U,49188,999,22973,.18868E-4,.2E-6,0
ONEWEB-0307,2021-083D,2026-06-15T04:17:47.440320,13.13470267,.0001978,87.8948,320.6352,95.2821,264.8534,0,U,49189,999,23066,.59394E-3,.23E-5,0
ONEWEB-0320,2021-083E,2026-06-15T04:32:43.492992,13.18685931,.0001821,87.9157,335.8601,93.8161,266.3179,0,U,49190,999,22971,-.82155E-5,.1E-6,0
ONEWEB-0321,2021-083F,2026-06-15T00:05:54.368736,13.20771916,.0001801,87.9191,274.8698,107.2327,252.9003,0,U,49191,999,23654,-.66529E-4,-.14E-6,0
ONEWEB-0322,2021-083G,2026-06-15T04:11:39.702912,13.13468395,.0001371,87.8950,320.6365,99.8787,260.2497,0,U,49192,999,23065,.28041E-3,.115E-5,0
ONEWEB-0324,2021-083H,2026-06-15T03:53:52.535040,13.18685309,.0001958,87.9170,335.8523,97.4873,262.6482,0,U,49193,999,22973,-.15069E-3,-.46E-6,0
ONEWEB-0325,2021-083J,2026-06-15T03:58:44.319072,13.18686049,.0001795,87.9159,335.8601,90.0681,270.0657,0,U,49194,999,22974,-.75289E-4,-.17E-6,0
ONEWEB-0326,2021-083K,2026-06-15T04:20:47.580864,13.18685272,.0002037,87.9168,335.8548,85.9319,274.2046,0,U,49195,999,22973,-.26396E-4,.3E-7,0
ONEWEB-0327,2021-083L,2026-06-15T04:20:23.330112,13.18685009,.0001986,87.9159,335.8593,81.1802,278.9555,0,U,49196,999,22975,-.36587E-4,-.2E-7,0
ONEWEB-0328,2021-083M,2026-06-15T03:57:03.701088,13.13470349,.0001946,87.8960,320.6114,99.3704,260.7646,0,U,49197,999,23063,-.49576E-3,-.168E-5,0
ONEWEB-0331,2021-083N,2026-06-15T04:10:52.478400,13.18686943,.0002129,87.9169,335.8499,86.5622,273.5753,0,U,49198,999,22974,.66027E-4,.39E-6,0
ONEWEB-0333,2021-083P,2026-06-15T03:49:44.582592,13.13470722,.0001814,87.8947,320.6390,94.8794,265.2542,0,U,49199,999,23064,-.31798E-3,-.103E-5,0
ONEWEB-0334,2021-083Q,2026-06-15T00:30:04.940064,13.21183508,.000202,87.9212,274.8737,135.2478,224.8819,0,U,49200,999,23650,.41187E-1,.16893E-3,0
ONEWEB-0335,2021-083R,2026-06-15T03:42:26.016192,13.13470596,.0001989,87.8951,320.6371,93.2207,266.9150,0,U,49201,999,23065,-.9338E-3,-.328E-5,0
ONEWEB-0336,2021-083S,2026-06-15T03:00:59.494176,13.13469946,.0002235,87.8950,320.6382,93.1855,266.9530,0,U,49202,999,23064,.15636E-3,.7E-6,0
ONEWEB-0337,2021-083T,2026-06-15T03:15:25.382880,13.13470099,.0002033,87.8948,320.6422,98.2694,261.8666,0,U,49203,999,23064,-.62109E-3,-.214E-5,0
ONEWEB-0338,2021-083U,2026-06-14T23:53:46.406400,13.20773989,.0001671,87.9182,274.8856,103.1266,257.0054,0,U,49204,999,23652,.84133E-4,.47E-6,0
